{"type": "FeatureCollection", "features": [ {"type": "Feature", "properties": {"norad_id": 35462, "name": "COSMOS 2251 DEB", "group": "cosmos-2251-debris", "lat": 69.03383327426687, "lon": -46.381103126937916, "alt_km": 831.6678310839352, "timestamp": "2025-12-14T14:39:29.765273+00:00", "meta": {"OBJECT_NAME": "COSMOS 2251 DEB", "OBJECT_ID": "1993-036ALG", "EPOCH": "2025-12-13T04:42:22.622688", "MEAN_MOTION": 14.29303681, "ECCENTRICITY": 0.00867962, "INCLINATION": 74.0363, "RA_OF_ASC_NODE": 267.8552, "ARG_OF_PERICENTER": 302.9014, "MEAN_ANOMALY": 56.3806, "EPHEMERIS_TYPE": 0, "CLASSIFICATION_TYPE": "U", "NORAD_CAT_ID": 35462, "ELEMENT_SET_NO": 999, "REV_AT_EPOCH": 66387, "BSTAR": 0.0023872613, "MEAN_MOTION_DOT": 6.306e-05, "MEAN_MOTION_DDOT": 0}, "tle": {"line1": "1 35462U 93036ALG 25347.19609517  .00006306  00000+0  23873-2 0  9999", "line2": "2 35462  74.0363 267.8552 0086796 302.9014  56.3806 14.29303681663870"}}, "geometry": {"type": "Point", "coordinates": [-46.381103126937916, 69.03383327426687]}}, {"type": "Feature", "properties": {"norad_id": 35465, "name": "COSMOS 2251 DEB", "group": "cosmos-2251-debris", "lat": -52.00377811987832, "lon": 35.089751422166735, "alt_km": 772.3609881844095, "timestamp": "2025-12-14T14:39:29.765283+00:00", "meta": {"OBJECT_NAME": "COSMOS 2251 DEB", "OBJECT_ID": "1993-036ALK", "EPOCH": "2025-12-13T07:38:53.450880", "MEAN_MOTION": 14.44322289, "ECCENTRICITY": 0.00641679, "INCLINATION": 73.999, "RA_OF_ASC_NODE": 195.9475, "ARG_OF_PERICENTER": 356.1332, "MEAN_ANOMALY": 3.932, "EPHEMERIS_TYPE": 0, "CLASSIFICATION_TYPE": "U", "NORAD_CAT_ID": 35465, "ELEMENT_SET_NO": 999, "REV_AT_EPOCH": 87250, "BSTAR": 0.00060617426, "MEAN_MOTION_DOT": 2.111e-05, "MEAN_MOTION_DDOT": 0}, "tle": {"line1": "1 35465U 93036ALK 25347.31867420  .00002111  00000+0  60617-3 0  9993", "line2": "2 35465  73.9990 195.9475 0064167 356.1332   3.9320 14.44322289872507"}}, "geometry": {"type": "Point", "coordinates": [35.089751422166735, -52.00377811987832]}}, {"type": "Feature", "properties": {"norad_id": 35469, "name": "COSMOS 2251 DEB", "group": "cosmos-2251-debris", "lat": 66.05415871110304, "lon": 160.15998076450416, "alt_km": 697.9382591510412, "timestamp": "2025-12-14T14:39:29.765293+00:00", "meta": {"OBJECT_NAME": "COSMOS 2251 DEB", "OBJECT_ID": "1993-036ALP", "EPOCH": "2025-12-13T19:56:30.477984", "MEAN_MOTION": 14.49820874, "ECCENTRICITY": 0.00768963, "INCLINATION": 74.0172, "RA_OF_ASC_NODE": 21.8189, "ARG_OF_PERICENTER": 176.9201, "MEAN_ANOMALY": 183.2449, "EPHEMERIS_TYPE": 0, "CLASSIFICATION_TYPE": "U", "NORAD_CAT_ID": 35469, "ELEMENT_SET_NO": 999, "REV_AT_EPOCH": 88127, "BSTAR": 0.00014014105, "MEAN_MOTION_DOT": 5.32e-06, "MEAN_MOTION_DDOT": 0}, "tle": {"line1": "1 35469U 93036ALP 25347.83090831  .00000532  00000+0  14014-3 0  9993", "line2": "2 35469  74.0172  21.8189 0076896 176.9201 183.2449 14.49820874881275"}}, "geometry": {"type": "Point", "coordinates": [160.15998076450416, 66.05415871110304]}}, {"type": "Feature", "properties": {"norad_id": 35475, "name": "COSMOS 2251 DEB", "group": "cosmos-2251-debris", "lat": 72.92343735197413, "lon": -86.8701938064368, "alt_km": 665.2499594979372, "timestamp": "2025-12-14T14:39:29.765303+00:00", "meta": {"OBJECT_NAME": "COSMOS 2251 DEB", "OBJECT_ID": "1993-036ALV", "EPOCH": "2025-12-13T18:37:05.942208", "MEAN_MOTION": 14.69763916, "ECCENTRICITY": 0.00205516, "INCLINATION": 74.0215, "RA_OF_ASC_NODE": 163.6147, "ARG_OF_PERICENTER": 236.5604, "MEAN_ANOMALY": 123.3602, "EPHEMERIS_TYPE": 0, "CLASSIFICATION_TYPE": "U", "NORAD_CAT_ID": 35475, "ELEMENT_SET_NO": 999, "REV_AT_EPOCH": 65632, "BSTAR": 0.0021884107, "MEAN_MOTION_DOT": 0.0001309, "MEAN_MOTION_DDOT": 0}, "tle": {"line1": "1 35475U 93036ALV 25347.77576322  .00013090  00000+0  21884-2 0  9992", "line2": "2 35475  74.0215 163.6147 0020551 236.5604 123.3602 14.69763916656323"}}, "geometry": {"type": "Point", "coordinates": [-86.8701938064368, 72.92343735197413]}}, {"type": "Feature", "properties": {"norad_id": 35476, "name": "COSMOS 2251 DEB", "group": "cosmos-2251-debris", "lat": -17.177178358319946, "lon": 52.14760334873583, "alt_km": 640.296760064085, "timestamp": "2025-12-14T14:39:29.765312+00:00", "meta": {"OBJECT_NAME": "COSMOS 2251 DEB", "OBJECT_ID": "1993-036ALW", "EPOCH": "2025-12-13T11:07:53.768928", "MEAN_MOTION": 14.75711468, "ECCENTRICITY": 0.00176475, "INCLINATION": 73.979, "RA_OF_ASC_NODE": 59.4941, "ARG_OF_PERICENTER": 40.149, "MEAN_ANOMALY": 331.4663, "EPHEMERIS_TYPE": 0, "CLASSIFICATION_TYPE": "U", "NORAD_CAT_ID": 35476, "ELEMENT_SET_NO": 999, "REV_AT_EPOCH": 87898, "BSTAR": 0.0027399331, "MEAN_MOTION_DOT": 0.00018809, "MEAN_MOTION_DDOT": 0}, "tle": {"line1": "1 35476U 93036ALW 25347.46381677  .00018809  00000+0  27399-2 0  9996", "line2": "2 35476  73.9790  59.4941 0017647  40.1490 331.4663 14.75711468878987"}}, "geometry": {"type": "Point", "coordinates": [52.14760334873583, -17.177178358319946]}}, {"type": "Feature", "properties": {"norad_id": 35580, "name": "COSMOS 2251 DEB", "group": "cosmos-2251-debris", "lat": -4.045484683172351, "lon": -3.286490978523648, "alt_km": 747.3365180555484, "timestamp": "2025-12-14T14:39:29.765322+00:00", "meta": {"OBJECT_NAME": "COSMOS 2251 DEB", "OBJECT_ID": "1993-036ALX", "EPOCH": "2025-12-10T21:17:20.461632", "MEAN_MOTION": 13.83850084, "ECCENTRICITY": 0.0281508, "INCLINATION": 73.9016, "RA_OF_ASC_NODE": 181.8733, "ARG_OF_PERICENTER": 187.4326, "MEAN_ANOMALY": 172.2587, "EPHEMERIS_TYPE": 0, "CLASSIFICATION_TYPE": "U", "NORAD_CAT_ID": 35580, "ELEMENT_SET_NO": 999, "REV_AT_EPOCH": 62231, "BSTAR": 0.0026077, "MEAN_MOTION_DOT": 3.904e-05, "MEAN_MOTION_DDOT": 0}, "tle": {"line1": "1 35580U 93036ALX 25344.88704238  .00003904  00000+0  26077-2 0  9999", "line2": "2 35580  73.9016 181.8733 0281508 187.4326 172.2587 13.83850084622311"}}, "geometry": {"type": "Point", "coordinates": [-3.286490978523648, -4.045484683172351]}}, {"type": "Feature", "properties": {"norad_id": 35583, "name": "COSMOS 2251 DEB", "group": "cosmos-2251-debris", "lat": 45.709839169126596, "lon": -133.8139631394725, "alt_km": 1333.6958583417309, "timestamp": "2025-12-14T14:39:29.765332+00:00", "meta": {"OBJECT_NAME": "COSMOS 2251 DEB", "OBJECT_ID": "1993-036AMA", "EPOCH": "2025-12-13T08:17:27.195360", "MEAN_MOTION": 13.55336644, "ECCENTRICITY": 0.03854466, "INCLINATION": 73.9165, "RA_OF_ASC_NODE": 211.0344, "ARG_OF_PERICENTER": 235.2733, "MEAN_ANOMALY": 121.1514, "EPHEMERIS_TYPE": 0, "CLASSIFICATION_TYPE": "U", "NORAD_CAT_ID": 35583, "ELEMENT_SET_NO": 999, "REV_AT_EPOCH": 82420, "BSTAR": 0.0009708291, "MEAN_MOTION_DOT": 1.059e-05, "MEAN_MOTION_DDOT": 0}, "tle": {"line1": "1 35583U 93036AMA 25347.34545365  .00001059  00000+0  97083-3 0  9995", "line2": "2 35583  73.9165 211.0344 0385446 235.2733 121.1514 13.55336644824208"}}, "geometry": {"type": "Point", "coordinates": [-133.8139631394725, 45.709839169126596]}}, {"type": "Feature", "properties": {"norad_id": 35585, "name": "COSMOS 2251 DEB", "group": "cosmos-2251-debris", "lat": 44.1459077148538, "lon": 149.08854275618114, "alt_km": 1098.3858374554839, "timestamp": "2025-12-14T14:39:29.765343+00:00", "meta": {"OBJECT_NAME": "COSMOS 2251 DEB", "OBJECT_ID": "1993-036AMC", "EPOCH": "2025-12-13T17:54:58.306752", "MEAN_MOTION": 13.75252171, "ECCENTRICITY": 0.03104958, "INCLINATION": 73.9729, "RA_OF_ASC_NODE": 346.7306, "ARG_OF_PERICENTER": 258.7916, "MEAN_ANOMALY": 280.4709, "EPHEMERIS_TYPE": 0, "CLASSIFICATION_TYPE": "U", "NORAD_CAT_ID": 35585, "ELEMENT_SET_NO": 999, "REV_AT_EPOCH": 64077, "BSTAR": 0.0014185781, "MEAN_MOTION_DOT": 1.907e-05, "MEAN_MOTION_DDOT": 0}, "tle": {"line1": "1 35585U 93036AMC 25347.74650818  .00001907  00000+0  14186-2 0  9995", "line2": "2 35585  73.9729 346.7306 0310495 258.7916 280.4709 13.75252171640772"}}, "geometry": {"type": "Point", "coordinates": [149.08854275618114, 44.1459077148538]}}, {"type": "Feature", "properties": {"norad_id": 35586, "name": "COSMOS 2251 DEB", "group": "cosmos-2251-debris", "lat": 10.715469611407563, "lon": 116.37309584533944, "alt_km": 765.7436051786099, "timestamp": "2025-12-14T14:39:29.765353+00:00", "meta": {"OBJECT_NAME": "COSMOS 2251 DEB", "OBJECT_ID": "1993-036AMD", "EPOCH": "2025-12-09T15:43:44.050080", "MEAN_MOTION": 13.52082947, "ECCENTRICITY": 0.0404687, "INCLINATION": 74.02, "RA_OF_ASC_NODE": 307.4172, "ARG_OF_PERICENTER": 183.4058, "MEAN_ANOMALY": 354.3417, "EPHEMERIS_TYPE": 0, "CLASSIFICATION_TYPE": "U", "NORAD_CAT_ID": 35586, "ELEMENT_SET_NO": 999, "REV_AT_EPOCH": 60340, "BSTAR": 0.00055296, "MEAN_MOTION_DOT": 5.88e-06, "MEAN_MOTION_DDOT": 0}, "tle": {"line1": "1 35586U 93036AMD 25343.65537095  .00000588  00000+0  55296-3 0  9995", "line2": "2 35586  74.0200 307.4172 0404687 183.4058 354.3417 13.52082947603405"}}, "geometry": {"type": "Point", "coordinates": [116.37309584533944, 10.715469611407563]}}, {"type": "Feature", "properties": {"norad_id": 35587, "name": "COSMOS 2251 DEB", "group": "cosmos-2251-debris", "lat": 56.0294488474904, "lon": -150.41443488054517, "alt_km": 687.8335602521765, "timestamp": "2025-12-14T14:39:29.765363+00:00", "meta": {"OBJECT_NAME": "COSMOS 2251 DEB", "OBJECT_ID": "1993-036AME", "EPOCH": "2025-12-12T21:18:47.401632", "MEAN_MOTION": 14.71521652, "ECCENTRICITY": 0.01026064, "INCLINATION": 74.0049, "RA_OF_ASC_NODE": 58.1365, "ARG_OF_PERICENTER": 245.7643, "MEAN_ANOMALY": 113.2781, "EPHEMERIS_TYPE": 0, "CLASSIFICATION_TYPE": "U", "NORAD_CAT_ID": 35587, "ELEMENT_SET_NO": 999, "REV_AT_EPOCH": 66348, "BSTAR": 0.00043835007, "MEAN_MOTION_DOT": 2.92e-05, "MEAN_MOTION_DDOT": 0}, "tle": {"line1": "1 35587U 93036AME 25346.88804863  .00002920  00000+0  43835-3 0  9992", "line2": "2 35587  74.0049  58.1365 0102606 245.7643 113.2781 14.71521652663482"}}, "geometry": {"type": "Point", "coordinates": [-150.41443488054517, 56.0294488474904]}}]}